[{"OBJECT_NAME":"HAWK-11A","OBJECT_ID":"2024-247F","EPOCH":"2026-03-09T12:17:43.893312","MEAN_MOTION":15.28849427,"ECCENTRICITY":0.00054663,"INCLINATION":44.9941,"RA_OF_ASC_NODE":114.3328,"ARG_OF_PERICENTER":327.3713,"MEAN_ANOMALY":32.6832,"EPHEMERIS_TYPE":0,"CLASSIFICATION_TYPE":"U","NORAD_CAT_ID":62382,"ELEMENT_SET_NO":999,"REV_AT_EPOCH":6774,"BSTAR":0.00034106017,"MEAN_MOTION_DOT":9.457e-5,"MEAN_MOTION_DDOT":0},{"OBJECT_NAME":"STARLINK-35486","OBJECT_ID":"2025-245V","EPOCH":"2026-03-09T20:54:15.291648","MEAN_MOTION":15.30206571,"ECCENTRICITY":8.053e-5,"INCLINATION":53.1576,"RA_OF_ASC_NODE":283.0968,"ARG_OF_PERICENTER":88.0724,"MEAN_ANOMALY":272.0369,"EPHEMERIS_TYPE":0,"CLASSIFICATION_TYPE":"U","NORAD_CAT_ID":66253,"ELEMENT_SET_NO":999,"REV_AT_EPOCH":2107,"BSTAR":0.00090593905,"MEAN_MOTION_DOT":0.00026574,"MEAN_MOTION_DDOT":0}]
